{"type": "FeatureCollection", "features": [ {"type": "Feature", "properties": {"norad_id": 37340, "name": "COSMOS 2251 DEB", "group": "cosmos-2251-debris", "lat": -68.74192679922056, "lon": -146.74503151109303, "alt_km": 770.9908906789515, "timestamp": "2025-12-21T16:47:55.136619+00:00", "meta": {"OBJECT_NAME": "COSMOS 2251 DEB", "OBJECT_ID": "1993-036BLG", "EPOCH": "2025-12-19T03:19:36.196032", "MEAN_MOTION": 14.36930541, "ECCENTRICITY": 0.00180628, "INCLINATION": 74.0254, "RA_OF_ASC_NODE": 265.3825, "ARG_OF_PERICENTER": 358.9051, "MEAN_ANOMALY": 1.206, "EPHEMERIS_TYPE": 0, "CLASSIFICATION_TYPE": "U", "NORAD_CAT_ID": 37340, "ELEMENT_SET_NO": 999, "REV_AT_EPOCH": 84159, "BSTAR": 0.00014760605, "MEAN_MOTION_DOT": 4.11e-06, "MEAN_MOTION_DDOT": 0}, "tle": {"line1": "1 37340U 93036BLG 25353.13861338  .00000411  00000+0  14761-3 0  9996", "line2": "2 37340  74.0254 265.3825 0018062 358.9051   1.2060 14.36930541841592"}}, "geometry": {"type": "Point", "coordinates": [-146.74503151109303, -68.74192679922056]}}, {"type": "Feature", "properties": {"norad_id": 37483, "name": "COSMOS 2251 DEB", "group": "cosmos-2251-debris", "lat": -64.53018394251406, "lon": -16.266138996999842, "alt_km": 742.7753968697898, "timestamp": "2025-12-21T16:47:55.136629+00:00", "meta": {"OBJECT_NAME": "COSMOS 2251 DEB", "OBJECT_ID": "1993-036BLL", "EPOCH": "2025-12-21T02:19:54.132384", "MEAN_MOTION": 14.43567503, "ECCENTRICITY": 0.00935239, "INCLINATION": 73.9739, "RA_OF_ASC_NODE": 127.743, "ARG_OF_PERICENTER": 332.3525, "MEAN_ANOMALY": 27.2674, "EPHEMERIS_TYPE": 0, "CLASSIFICATION_TYPE": "U", "NORAD_CAT_ID": 37483, "ELEMENT_SET_NO": 999, "REV_AT_EPOCH": 65400, "BSTAR": 0.00014227935, "MEAN_MOTION_DOT": 4.79e-06, "MEAN_MOTION_DDOT": 0}, "tle": {"line1": "1 37483U 93036BLL 25355.09715431  .00000479  00000+0  14228-3 0  9995", "line2": "2 37483  73.9739 127.7430 0093523 332.3525  27.2674 14.43567503654005"}}, "geometry": {"type": "Point", "coordinates": [-16.266138996999842, -64.53018394251406]}}, {"type": "Feature", "properties": {"norad_id": 37484, "name": "COSMOS 2251 DEB", "group": "cosmos-2251-debris", "lat": 72.39093884900456, "lon": -102.23019311168952, "alt_km": 767.269381254182, "timestamp": "2025-12-21T16:47:55.136639+00:00", "meta": {"OBJECT_NAME": "COSMOS 2251 DEB", "OBJECT_ID": "1993-036BLM", "EPOCH": "2025-12-18T07:38:27.570624", "MEAN_MOTION": 14.41807924, "ECCENTRICITY": 0.00394245, "INCLINATION": 73.8227, "RA_OF_ASC_NODE": 197.9673, "ARG_OF_PERICENTER": 231.9462, "MEAN_ANOMALY": 306.1628, "EPHEMERIS_TYPE": 0, "CLASSIFICATION_TYPE": "U", "NORAD_CAT_ID": 37484, "ELEMENT_SET_NO": 999, "REV_AT_EPOCH": 65459, "BSTAR": 0.0005692289, "MEAN_MOTION_DOT": 1.85e-05, "MEAN_MOTION_DDOT": 0}, "tle": {"line1": "1 37484U 93036BLM 25352.31837466  .00001850  00000+0  56923-3 0  9993", "line2": "2 37484  73.8227 197.9673 0039424 231.9462 306.1628 14.41807924654593"}}, "geometry": {"type": "Point", "coordinates": [-102.23019311168952, 72.39093884900456]}}, {"type": "Feature", "properties": {"norad_id": 37486, "name": "COSMOS 2251 DEB", "group": "cosmos-2251-debris", "lat": 32.52232404631737, "lon": -92.3579286520449, "alt_km": 1011.6286422204712, "timestamp": "2025-12-21T16:47:55.136649+00:00", "meta": {"OBJECT_NAME": "COSMOS 2251 DEB", "OBJECT_ID": "1993-036BLP", "EPOCH": "2025-12-17T02:32:52.709568", "MEAN_MOTION": 14.133616, "ECCENTRICITY": 0.02300438, "INCLINATION": 73.6918, "RA_OF_ASC_NODE": 106.7033, "ARG_OF_PERICENTER": 334.068, "MEAN_ANOMALY": 206.8915, "EPHEMERIS_TYPE": 0, "CLASSIFICATION_TYPE": "U", "NORAD_CAT_ID": 37486, "ELEMENT_SET_NO": 999, "REV_AT_EPOCH": 63431, "BSTAR": 0.0015394853, "MEAN_MOTION_DOT": 3.693e-05, "MEAN_MOTION_DDOT": 0}, "tle": {"line1": "1 37486U 93036BLP 25351.10616562  .00003693  00000+0  15395-2 0  9997", "line2": "2 37486  73.6918 106.7033 0230043 334.0680 206.8915 14.13361600634313"}}, "geometry": {"type": "Point", "coordinates": [-92.3579286520449, 32.52232404631737]}}, {"type": "Feature", "properties": {"norad_id": 37487, "name": "COSMOS 2251 DEB", "group": "cosmos-2251-debris", "lat": -73.78288199831746, "lon": 77.42626369228131, "alt_km": 634.8882280071402, "timestamp": "2025-12-21T16:47:55.136659+00:00", "meta": {"OBJECT_NAME": "COSMOS 2251 DEB", "OBJECT_ID": "1993-036BLQ", "EPOCH": "2025-12-12T06:17:24.389376", "MEAN_MOTION": 14.80982589, "ECCENTRICITY": 0.00255931, "INCLINATION": 73.9026, "RA_OF_ASC_NODE": 193.0379, "ARG_OF_PERICENTER": 31.2136, "MEAN_ANOMALY": 329.0553, "EPHEMERIS_TYPE": 0, "CLASSIFICATION_TYPE": "U", "NORAD_CAT_ID": 37487, "ELEMENT_SET_NO": 999, "REV_AT_EPOCH": 81238, "BSTAR": 0.0042593386, "MEAN_MOTION_DOT": 0.00033302, "MEAN_MOTION_DDOT": 0}, "tle": {"line1": "1 37487U 93036BLQ 25346.26208784  .00033302  00000+0  42593-2 0  9992", "line2": "2 37487  73.9026 193.0379 0025593  31.2136 329.0553 14.80982589812383"}}, "geometry": {"type": "Point", "coordinates": [77.42626369228131, -73.78288199831746]}}, {"type": "Feature", "properties": {"norad_id": 37491, "name": "COSMOS 2251 DEB", "group": "cosmos-2251-debris", "lat": -28.35500192269247, "lon": 88.03454123786389, "alt_km": 806.8667602192309, "timestamp": "2025-12-21T16:47:55.136669+00:00", "meta": {"OBJECT_NAME": "COSMOS 2251 DEB", "OBJECT_ID": "1993-036BLU", "EPOCH": "2025-12-18T10:56:34.756512", "MEAN_MOTION": 13.75306466, "ECCENTRICITY": 0.03168182, "INCLINATION": 73.9061, "RA_OF_ASC_NODE": 264.5073, "ARG_OF_PERICENTER": 256.5569, "MEAN_ANOMALY": 100.0063, "EPHEMERIS_TYPE": 0, "CLASSIFICATION_TYPE": "U", "NORAD_CAT_ID": 37491, "ELEMENT_SET_NO": 999, "REV_AT_EPOCH": 55825, "BSTAR": 0.00075469167, "MEAN_MOTION_DOT": 1.019e-05, "MEAN_MOTION_DDOT": 0}, "tle": {"line1": "1 37491U 93036BLU 25352.45595783  .00001019  00000+0  75469-3 0  9992", "line2": "2 37491  73.9061 264.5073 0316818 256.5569 100.0063 13.75306466558250"}}, "geometry": {"type": "Point", "coordinates": [88.03454123786389, -28.35500192269247]}}, {"type": "Feature", "properties": {"norad_id": 37498, "name": "COSMOS 2251 DEB", "group": "cosmos-2251-debris", "lat": -55.72436896438423, "lon": 142.09368459475925, "alt_km": 713.9606368610876, "timestamp": "2025-12-21T16:47:55.136679+00:00", "meta": {"OBJECT_NAME": "COSMOS 2251 DEB", "OBJECT_ID": "1993-036BMB", "EPOCH": "2025-12-17T05:47:45.632832", "MEAN_MOTION": 14.54797097, "ECCENTRICITY": 0.00121661, "INCLINATION": 74.035, "RA_OF_ASC_NODE": 175.365, "ARG_OF_PERICENTER": 238.5243, "MEAN_ANOMALY": 121.4732, "EPHEMERIS_TYPE": 0, "CLASSIFICATION_TYPE": "U", "NORAD_CAT_ID": 37498, "ELEMENT_SET_NO": 999, "REV_AT_EPOCH": 65420, "BSTAR": 0.00050498457, "MEAN_MOTION_DOT": 2.139e-05, "MEAN_MOTION_DDOT": 0}, "tle": {"line1": "1 37498U 93036BMB 25351.24150038  .00002139  00000+0  50498-3 0  9994", "line2": "2 37498  74.0350 175.3650 0012166 238.5243 121.4732 14.54797097654202"}}, "geometry": {"type": "Point", "coordinates": [142.09368459475925, -55.72436896438423]}}, {"type": "Feature", "properties": {"norad_id": 37499, "name": "COSMOS 2251 DEB", "group": "cosmos-2251-debris", "lat": -32.58551842105885, "lon": 136.32755068764038, "alt_km": 801.8205347422818, "timestamp": "2025-12-21T16:47:55.136689+00:00", "meta": {"OBJECT_NAME": "COSMOS 2251 DEB", "OBJECT_ID": "1993-036BMC", "EPOCH": "2025-12-20T14:41:45.178080", "MEAN_MOTION": 14.34349303, "ECCENTRICITY": 0.0027237, "INCLINATION": 74.0381, "RA_OF_ASC_NODE": 307.7769, "ARG_OF_PERICENTER": 21.4596, "MEAN_ANOMALY": 338.7691, "EPHEMERIS_TYPE": 0, "CLASSIFICATION_TYPE": "U", "NORAD_CAT_ID": 37499, "ELEMENT_SET_NO": 999, "REV_AT_EPOCH": 85262, "BSTAR": 0.00012215, "MEAN_MOTION_DOT": 3.19e-06, "MEAN_MOTION_DDOT": 0}, "tle": {"line1": "1 37499U 93036BMC 25354.61232845  .00000319  00000+0  12215-3 0  9999", "line2": "2 37499  74.0381 307.7769 0027237  21.4596 338.7691 14.34349303852628"}}, "geometry": {"type": "Point", "coordinates": [136.32755068764038, -32.58551842105885]}}, {"type": "Feature", "properties": {"norad_id": 37528, "name": "COSMOS 2251 DEB", "group": "cosmos-2251-debris", "lat": 8.402749570360122, "lon": -77.12351242252274, "alt_km": 723.0687506915692, "timestamp": "2025-12-21T16:47:55.136699+00:00", "meta": {"OBJECT_NAME": "COSMOS 2251 DEB", "OBJECT_ID": "1993-036BNH", "EPOCH": "2025-12-21T01:06:47.219904", "MEAN_MOTION": 14.50547349, "ECCENTRICITY": 0.00211898, "INCLINATION": 74.0384, "RA_OF_ASC_NODE": 106.5272, "ARG_OF_PERICENTER": 254.0309, "MEAN_ANOMALY": 105.8518, "EPHEMERIS_TYPE": 0, "CLASSIFICATION_TYPE": "U", "NORAD_CAT_ID": 37528, "ELEMENT_SET_NO": 999, "REV_AT_EPOCH": 86051, "BSTAR": 0.00031815462, "MEAN_MOTION_DOT": 1.222e-05, "MEAN_MOTION_DDOT": 0}, "tle": {"line1": "1 37528U 93036BNH 25355.04637986  .00001222  00000+0  31815-3 0  9996", "line2": "2 37528  74.0384 106.5272 0021189 254.0309 105.8518 14.50547349860510"}}, "geometry": {"type": "Point", "coordinates": [-77.12351242252274, 8.402749570360122]}}, {"type": "Feature", "properties": {"norad_id": 37530, "name": "COSMOS 2251 DEB", "group": "cosmos-2251-debris", "lat": -69.24739167628127, "lon": -91.82919512362858, "alt_km": 784.679946455034, "timestamp": "2025-12-21T16:47:55.136709+00:00", "meta": {"OBJECT_NAME": "COSMOS 2251 DEB", "OBJECT_ID": "1993-036BNK", "EPOCH": "2025-12-20T04:25:20.724960", "MEAN_MOTION": 14.34512323, "ECCENTRICITY": 0.0026208, "INCLINATION": 74.0363, "RA_OF_ASC_NODE": 320.008, "ARG_OF_PERICENTER": 20.0363, "MEAN_ANOMALY": 359.5359, "EPHEMERIS_TYPE": 0, "CLASSIFICATION_TYPE": "U", "NORAD_CAT_ID": 37530, "ELEMENT_SET_NO": 999, "REV_AT_EPOCH": 85339, "BSTAR": 0.00016497605, "MEAN_MOTION_DOT": 4.41e-06, "MEAN_MOTION_DDOT": 0}, "tle": {"line1": "1 37530U 93036BNK 25354.18426765  .00000441  00000+0  16498-3 0  9996", "line2": "2 37530  74.0363 320.0080 0026208  20.0363 359.5359 14.34512323853393"}}, "geometry": {"type": "Point", "coordinates": [-91.82919512362858, -69.24739167628127]}}]}